[{"OBJECT_NAME":"OBJECT K","OBJECT_ID":"2025-155K","EPOCH":"2026-03-09T22:07:25.197888","MEAN_MOTION":15.34284916,"ECCENTRICITY":0.00088839,"INCLINATION":97.4419,"RA_OF_ASC_NODE":38.2399,"ARG_OF_PERICENTER":139.4299,"MEAN_ANOMALY":220.7607,"EPHEMERIS_TYPE":0,"CLASSIFICATION_TYPE":"U","NORAD_CAT_ID":64885,"ELEMENT_SET_NO":999,"REV_AT_EPOCH":6566,"BSTAR":0.00076172732,"MEAN_MOTION_DOT":0.00025288,"MEAN_MOTION_DDOT":0},{"OBJECT_NAME":"CSSWE","OBJECT_ID":"2012-048D","EPOCH":"2026-03-09T08:13:05.901888","MEAN_MOTION":15.39093253,"ECCENTRICITY":0.00676686,"INCLINATION":64.6623,"RA_OF_ASC_NODE":70.3925,"ARG_OF_PERICENTER":202.9126,"MEAN_ANOMALY":156.8988,"EPHEMERIS_TYPE":0,"CLASSIFICATION_TYPE":"U","NORAD_CAT_ID":38761,"ELEMENT_SET_NO":999,"REV_AT_EPOCH":10100,"BSTAR":0.00070329542,"MEAN_MOTION_DOT":0.0002953,"MEAN_MOTION_DDOT":0}]
